[{"OBJECT_NAME":"KUIPER-00046","OBJECT_ID":"2025-134G","EPOCH":"2026-03-07T06:08:31.049088","MEAN_MOTION":14.79933416,"ECCENTRICITY":5.96e-5,"INCLINATION":51.8978,"RA_OF_ASC_NODE":253.8132,"ARG_OF_PERICENTER":95.7105,"MEAN_ANOMALY":264.3925,"EPHEMERIS_TYPE":0,"CLASSIFICATION_TYPE":"U","NORAD_CAT_ID":64506,"ELEMENT_SET_NO":999,"REV_AT_EPOCH":3957,"BSTAR":0.00076479,"MEAN_MOTION_DOT":5.614e-5,"MEAN_MOTION_DDOT":0},{"OBJECT_NAME":"KUIPER-00047","OBJECT_ID":"2025-134H","EPOCH":"2026-03-07T14:42:47.151936","MEAN_MOTION":14.77269781,"ECCENTRICITY":0.00023645,"INCLINATION":51.8989,"RA_OF_ASC_NODE":224.9895,"ARG_OF_PERICENTER":133.3537,"MEAN_ANOMALY":226.7622,"EPHEMERIS_TYPE":0,"CLASSIFICATION_TYPE":"U","NORAD_CAT_ID":64507,"ELEMENT_SET_NO":999,"REV_AT_EPOCH":4000,"BSTAR":0.00083060587,"MEAN_MOTION_DOT":5.734e-5,"MEAN_MOTION_DDOT":0},{"OBJECT_NAME":"KUIPER-00048","OBJECT_ID":"2025-134J","EPOCH":"2026-03-07T14:57:22.779648","MEAN_MOTION":14.79939956,"ECCENTRICITY":8.059e-5,"INCLINATION":51.8998,"RA_OF_ASC_NODE":224.7164,"ARG_OF_PERICENTER":105.3023,"MEAN_ANOMALY":254.8028,"EPHEMERIS_TYPE":0,"CLASSIFICATION_TYPE":"U","NORAD_CAT_ID":64508,"ELEMENT_SET_NO":999,"REV_AT_EPOCH":4001,"BSTAR":0.00027131064,"MEAN_MOTION_DOT":1.848e-5,"MEAN_MOTION_DDOT":0},{"OBJECT_NAME":"KUIPER-00049","OBJECT_ID":"2025-134K","EPOCH":"2026-03-07T10:53:26.758752","MEAN_MOTION":14.83325717,"ECCENTRICITY":0.00017203,"INCLINATION":51.8992,"RA_OF_ASC_NODE":238.7442,"ARG_OF_PERICENTER":128.4369,"MEAN_ANOMALY":231.675,"EPHEMERIS_TYPE":0,"CLASSIFICATION_TYPE":"U","NORAD_CAT_ID":64509,"ELEMENT_SET_NO":999,"REV_AT_EPOCH":3980,"BSTAR":0.00081669238,"MEAN_MOTION_DOT":6.532e-5,"MEAN_MOTION_DDOT":0},{"OBJECT_NAME":"KUIPER-00050","OBJECT_ID":"2025-134L","EPOCH":"2026-03-07T14:57:33.045696","MEAN_MOTION":14.9724273,"ECCENTRICITY":0.00044395,"INCLINATION":51.8904,"RA_OF_ASC_NODE":221.3442,"ARG_OF_PERICENTER":315.1086,"MEAN_ANOMALY":44.9524,"EPHEMERIS_TYPE":0,"CLASSIFICATION_TYPE":"U","NORAD_CAT_ID":64510,"ELEMENT_SET_NO":999,"REV_AT_EPOCH":4006,"BSTAR":0.00091943612,"MEAN_MOTION_DOT":0.0001052,"MEAN_MOTION_DDOT":0},{"OBJECT_NAME":"KUIPER-00051","OBJECT_ID":"2025-134M","EPOCH":"2026-03-07T04:43:18.538176","MEAN_MOTION":14.83753124,"ECCENTRICITY":6.12e-5,"INCLINATION":51.9015,"RA_OF_ASC_NODE":236.8681,"ARG_OF_PERICENTER":89.8473,"MEAN_ANOMALY":270.2562,"EPHEMERIS_TYPE":0,"CLASSIFICATION_TYPE":"U","NORAD_CAT_ID":64511,"ELEMENT_SET_NO":999,"REV_AT_EPOCH":3980,"BSTAR":0.00092107,"MEAN_MOTION_DOT":7.476e-5,"MEAN_MOTION_DDOT":0},{"OBJECT_NAME":"KUIPER-00053","OBJECT_ID":"2025-134P","EPOCH":"2026-03-07T14:45:47.703744","MEAN_MOTION":14.79931786,"ECCENTRICITY":9.016e-5,"INCLINATION":51.9012,"RA_OF_ASC_NODE":232.2688,"ARG_OF_PERICENTER":156.0221,"MEAN_ANOMALY":204.0783,"EPHEMERIS_TYPE":0,"CLASSIFICATION_TYPE":"U","NORAD_CAT_ID":64513,"ELEMENT_SET_NO":999,"REV_AT_EPOCH":3990,"BSTAR":0.00059838691,"MEAN_MOTION_DOT":4.343e-5,"MEAN_MOTION_DDOT":0},{"OBJECT_NAME":"KUIPER-00054","OBJECT_ID":"2025-134Q","EPOCH":"2026-03-07T14:53:51.208512","MEAN_MOTION":14.79966236,"ECCENTRICITY":1.123e-5,"INCLINATION":51.8979,"RA_OF_ASC_NODE":227.2156,"ARG_OF_PERICENTER":155.2269,"MEAN_ANOMALY":204.8699,"EPHEMERIS_TYPE":0,"CLASSIFICATION_TYPE":"U","NORAD_CAT_ID":64514,"ELEMENT_SET_NO":999,"REV_AT_EPOCH":3997,"BSTAR":0.00085056878,"MEAN_MOTION_DOT":6.274e-5,"MEAN_MOTION_DDOT":0},{"OBJECT_NAME":"KUIPER-00055","OBJECT_ID":"2025-134R","EPOCH":"2026-03-07T14:26:25.908864","MEAN_MOTION":15.20460394,"ECCENTRICITY":0.0001137,"INCLINATION":51.889,"RA_OF_ASC_NODE":189.6069,"ARG_OF_PERICENTER":13.2847,"MEAN_ANOMALY":346.8162,"EPHEMERIS_TYPE":0,"CLASSIFICATION_TYPE":"U","NORAD_CAT_ID":64515,"ELEMENT_SET_NO":999,"REV_AT_EPOCH":4050,"BSTAR":0.0011287733,"MEAN_MOTION_DOT":0.00024729,"MEAN_MOTION_DDOT":0},{"OBJECT_NAME":"KUIPER-00056","OBJECT_ID":"2025-134S","EPOCH":"2026-03-07T11:00:42.896448","MEAN_MOTION":14.83518225,"ECCENTRICITY":0.0001152,"INCLINATION":51.9009,"RA_OF_ASC_NODE":233.1074,"ARG_OF_PERICENTER":51.1596,"MEAN_ANOMALY":308.9471,"EPHEMERIS_TYPE":0,"CLASSIFICATION_TYPE":"U","NORAD_CAT_ID":64516,"ELEMENT_SET_NO":999,"REV_AT_EPOCH":3988,"BSTAR":0.00079325393,"MEAN_MOTION_DOT":6.368e-5,"MEAN_MOTION_DDOT":0},{"OBJECT_NAME":"KUIPER-00057","OBJECT_ID":"2025-134T","EPOCH":"2026-03-07T10:52:42.146976","MEAN_MOTION":14.83742195,"ECCENTRICITY":0.00039847,"INCLINATION":51.8981,"RA_OF_ASC_NODE":240.6234,"ARG_OF_PERICENTER":265.3862,"MEAN_ANOMALY":94.6646,"EPHEMERIS_TYPE":0,"CLASSIFICATION_TYPE":"U","NORAD_CAT_ID":64517,"ELEMENT_SET_NO":999,"REV_AT_EPOCH":3977,"BSTAR":0.00090078951,"MEAN_MOTION_DOT":7.304e-5,"MEAN_MOTION_DDOT":0},{"OBJECT_NAME":"KUIPER-00058","OBJECT_ID":"2025-134U","EPOCH":"2026-03-07T14:42:01.704672","MEAN_MOTION":14.79975061,"ECCENTRICITY":3.927e-5,"INCLINATION":51.9019,"RA_OF_ASC_NODE":234.7192,"ARG_OF_PERICENTER":93.0736,"MEAN_ANOMALY":267.0271,"EPHEMERIS_TYPE":0,"CLASSIFICATION_TYPE":"U","NORAD_CAT_ID":64518,"ELEMENT_SET_NO":999,"REV_AT_EPOCH":3987,"BSTAR":0.00086133838,"MEAN_MOTION_DOT":6.358e-5,"MEAN_MOTION_DDOT":0},{"OBJECT_NAME":"KUIPER-00059","OBJECT_ID":"2025-134V","EPOCH":"2026-03-07T14:49:42.022272","MEAN_MOTION":14.7993956,"ECCENTRICITY":0.00011592,"INCLINATION":51.9003,"RA_OF_ASC_NODE":229.7467,"ARG_OF_PERICENTER":149.7947,"MEAN_ANOMALY":210.3082,"EPHEMERIS_TYPE":0,"CLASSIFICATION_TYPE":"U","NORAD_CAT_ID":64519,"ELEMENT_SET_NO":999,"REV_AT_EPOCH":3994,"BSTAR":0.00079962014,"MEAN_MOTION_DOT":5.881e-5,"MEAN_MOTION_DDOT":0},{"OBJECT_NAME":"KUIPER-00060","OBJECT_ID":"2025-134W","EPOCH":"2026-03-07T11:00:48.039840","MEAN_MOTION":14.83583101,"ECCENTRICITY":0.00017425,"INCLINATION":51.9018,"RA_OF_ASC_NODE":230.582,"ARG_OF_PERICENTER":75.8451,"MEAN_ANOMALY":284.2707,"EPHEMERIS_TYPE":0,"CLASSIFICATION_TYPE":"U","NORAD_CAT_ID":64520,"ELEMENT_SET_NO":999,"REV_AT_EPOCH":3990,"BSTAR":0.00085143483,"MEAN_MOTION_DOT":6.864e-5,"MEAN_MOTION_DDOT":0},{"OBJECT_NAME":"KUIPER-00061","OBJECT_ID":"2025-134X","EPOCH":"2026-03-07T11:23:32.591328","MEAN_MOTION":14.79915492,"ECCENTRICITY":0.00012396,"INCLINATION":51.8996,"RA_OF_ASC_NODE":237.8842,"ARG_OF_PERICENTER":105.9106,"MEAN_ANOMALY":254.1993,"EPHEMERIS_TYPE":0,"CLASSIFICATION_TYPE":"U","NORAD_CAT_ID":64521,"ELEMENT_SET_NO":999,"REV_AT_EPOCH":3980,"BSTAR":0.00075931108,"MEAN_MOTION_DOT":5.57e-5,"MEAN_MOTION_DDOT":0},{"OBJECT_NAME":"KUIPER-00062","OBJECT_ID":"2025-134Y","EPOCH":"2026-03-07T11:19:15.768192","MEAN_MOTION":14.80231274,"ECCENTRICITY":3.403e-5,"INCLINATION":51.8971,"RA_OF_ASC_NODE":240.4267,"ARG_OF_PERICENTER":73.3231,"MEAN_ANOMALY":286.7769,"EPHEMERIS_TYPE":0,"CLASSIFICATION_TYPE":"U","NORAD_CAT_ID":64522,"ELEMENT_SET_NO":999,"REV_AT_EPOCH":3978,"BSTAR":0.0078703771,"MEAN_MOTION_DOT":0.00060753,"MEAN_MOTION_DDOT":0}]
