KUIPER-00046            
1 64506U 25134G   26066.25591492  .00005614  00000+0  76479-3 0  9994
2 64506  51.8978 253.8132 0000596  95.7105 264.3925 14.79933416 39574
KUIPER-00047            
1 64507U 25134H   26066.61304574  .00005734  00000+0  83061-3 0  9996
2 64507  51.8989 224.9895 0002364 133.3537 226.7622 14.77269781 40006
KUIPER-00048            
1 64508U 25134J   26066.62318032  .00001848  00000+0  27131-3 0  9990
2 64508  51.8998 224.7164 0000805 105.3023 254.8028 14.79939956 40014
KUIPER-00049            
1 64509U 25134K   26066.45378193  .00006532  00000+0  81669-3 0  9997
2 64509  51.8992 238.7442 0001720 128.4369 231.6750 14.83325717 39808
KUIPER-00050            
1 64510U 25134L   26066.62329914  .00010520  00000+0  91944-3 0  9994
2 64510  51.8904 221.3442 0004439 315.1086  44.9524 14.97242730 40064
KUIPER-00051            
1 64511U 25134M   26066.19674234  .00007476  00000+0  92107-3 0  9993
2 64511  51.9015 236.8681 0000612  89.8473 270.2562 14.83753124 39804
KUIPER-00053            
1 64513U 25134P   26066.61513546  .00004343  00000+0  59839-3 0  9995
2 64513  51.9012 232.2688 0000901 156.0221 204.0783 14.79931786 39907
KUIPER-00054            
1 64514U 25134Q   26066.62073158  .00006274  00000+0  85057-3 0  9993
2 64514  51.8979 227.2156 0000112 155.2269 204.8699 14.79966236 39979
KUIPER-00055            
1 64515U 25134R   26066.60168876  .00024729  00000+0  11288-2 0  9993
2 64515  51.8890 189.6069 0001137  13.2847 346.8162 15.20460394 40503
KUIPER-00056            
1 64516U 25134S   26066.45882982  .00006368  00000+0  79325-3 0  9994
2 64516  51.9009 233.1074 0001152  51.1596 308.9471 14.83518225 39883
KUIPER-00057            
1 64517U 25134T   26066.45326559  .00007304  00000+0  90079-3 0  9998
2 64517  51.8981 240.6234 0003984 265.3862  94.6646 14.83742195 39779
KUIPER-00058            
1 64518U 25134U   26066.61251973  .00006358  00000+0  86134-3 0  9999
2 64518  51.9019 234.7192 0000392  93.0736 267.0271 14.79975061 39872
KUIPER-00059            
1 64519U 25134V   26066.61784748  .00005881  00000+0  79962-3 0  9992
2 64519  51.9003 229.7467 0001159 149.7947 210.3082 14.79939560 39943
KUIPER-00060            
1 64520U 25134W   26066.45888935  .00006864  00000+0  85143-3 0  9999
2 64520  51.9018 230.5820 0001742  75.8451 284.2707 14.83583101 39902
KUIPER-00061            
1 64521U 25134X   26066.47468277  .00005570  00000+0  75931-3 0  9992
2 64521  51.8996 237.8842 0001239 105.9106 254.1993 14.79915492 39803
KUIPER-00062            
1 64522U 25134Y   26066.47171028  .00060753  00000+0  78704-2 0  9992
2 64522  51.8971 240.4267 0000340  73.3231 286.7769 14.80231274 39787
